

*******************************************************************************
Ephemeris / WWW_USER Wed Mar 13 03:29:06 2024 Pasadena, USA      / Horizons
*******************************************************************************
Target body name: Sun (10)                        {source: DE441}
Center body name: Earth (399)                     {source: DE441}
Center-site name: BODY CENTER
*******************************************************************************
Start time      : A.D. 1996-Mar-19 00:00:00.0000 TDB
Stop  time      : A.D. 1996-Mar-22 00:00:00.0000 TDB
Step-size       : 1 minutes
*******************************************************************************
Center geodetic : 0.0, 0.0, 0.0                   {E-lon(deg),Lat(deg),Alt(km)}
Center cylindric: 0.0, 0.0, 0.0                   {E-lon(deg),Dxy(km),Dz(km)}
Center radii    : 6378.137, 6378.137, 6356.752 km {Equator_a, b, pole_c}
Output units    : KM-S
Calendar mode   : Mixed Julian/Gregorian
Output type     : GEOMETRIC cartesian states
Output format   : 2 (position and velocity)
EOP file        : eop.240312.p240605
EOP coverage    : DATA-BASED 1962-JAN-20 TO 2024-MAR-12. PREDICTS-> 2024-JUN-04
Reference frame : ICRF
*******************************************************************************
            JDTDB,            Calendar Date (TDB),                      X,                      Y,                      Z,                     VX,                     VY,                     VZ,
**************************************************************************************************************************************************************************************************
$$SOE
2450163.104166667, A.D. 1996-Mar-20 14:30:00.0000,  1.490156394311243E+08,  7.713319154835389E+05,  3.347902427045448E+05,  3.158127334755688E-01,  2.744407852817218E+01,  1.189748096335789E+01,
2450163.104861111, A.D. 1996-Mar-20 14:31:00.0000,  1.490156583690711E+08,  7.729785601246427E+05,  3.355040915314996E+05,  3.154521589645568E-01,  2.744407617464024E+01,  1.189747993483779E+01,
2450163.105555556, A.D. 1996-Mar-20 14:32:00.0000,  1.490156772853834E+08,  7.746252046244087E+05,  3.362179402966887E+05,  3.150915847417427E-01,  2.744407381683965E+01,  1.189747890450163E+01,
2450163.106250000, A.D. 1996-Mar-20 14:33:00.0000,  1.490156961800613E+08,  7.762718489825804E+05,  3.369317890000046E+05,  3.147310108072301E-01,  2.744407145477048E+01,  1.189747787234942E+01,
2450163.106944445, A.D. 1996-Mar-20 14:34:00.0000,  1.490157150531047E+08,  7.779184931988968E+05,  3.376456376413346E+05,  3.143704371611251E-01,  2.744406908843275E+01,  1.189747683838120E+01,
2450163.107638889, A.D. 1996-Mar-20 14:35:00.0000,  1.490157339045137E+08,  7.795651372731084E+05,  3.383594862205735E+05,  3.140098638035310E-01,  2.744406671782649E+01,  1.189747580259696E+01,
2450163.108333333, A.D. 1996-Mar-20 14:36:00.0000,  1.490157527342884E+08,  7.812117812049510E+05,  3.390733347376095E+05,  3.136492907345542E-01,  2.744406434295176E+01,  1.189747476499672E+01,
2450163.109027778, A.D. 1996-Mar-20 14:37:00.0000,  1.490157715424286E+08,  7.828584249941749E+05,  3.397871831923361E+05,  3.132887179542980E-01,  2.744406196380856E+01,  1.189747372558049E+01,
2450163.109722222, A.D. 1996-Mar-20 14:38:00.0000,  1.490157903289346E+08,  7.845050686405234E+05,  3.405010315846438E+05,  3.129281454628677E-01,  2.744405958039695E+01,  1.189747268434830E+01,
2450163.110416667, A.D. 1996-Mar-20 14:39:00.0000,  1.490158090938061E+08,  7.861517121437375E+05,  3.412148799144215E+05,  3.125675732603682E-01,  2.744405719271697E+01,  1.189747164130015E+01,
2450163.111111111, A.D. 1996-Mar-20 14:40:00.0000,  1.490158278370433E+08,  7.877983555035621E+05,  3.419287281815626E+05,  3.122070013469046E-01,  2.744405480076864E+01,  1.189747059643605E+01,
2450163.111805555, A.D. 1996-Mar-20 14:41:00.0000,  1.490158465586463E+08,  7.894449987197461E+05,  3.426425763859579E+05,  3.118464297225803E-01,  2.744405240455200E+01,  1.189746954975603E+01,
2450163.112500000, A.D. 1996-Mar-20 14:42:00.0000,  1.490158652586149E+08,  7.910916417920250E+05,  3.433564245274980E+05,  3.114858583875013E-01,  2.744405000406709E+01,  1.189746850126009E+01,
2450163.113194444, A.D. 1996-Mar-20 14:43:00.0000,  1.490158839369493E+08,  7.927382847201455E+05,  3.440702726060727E+05,  3.111252873417713E-01,  2.744404759931394E+01,  1.189746745094825E+01,
2450163.113888889, A.D. 1996-Mar-20 14:44:00.0000,  1.490159025936494E+08,  7.943849275038564E+05,  3.447841206215753E+05,  3.107647165854960E-01,  2.744404519029259E+01,  1.189746639882052E+01,
2450163.114583333, A.D. 1996-Mar-20 14:45:00.0000,  1.490159212287153E+08,  7.960315701428951E+05,  3.454979685738940E+05,  3.104041461187789E-01,  2.744404277700309E+01,  1.189746534487692E+01,
2450163.115277778, A.D. 1996-Mar-20 14:46:00.0000,  1.490159398421469E+08,  7.976782126370103E+05,  3.462118164629248E+05,  3.100435759417252E-01,  2.744404035944545E+01,  1.189746428911746E+01,
2450163.115972222, A.D. 1996-Mar-20 14:47:00.0000,  1.490159584339444E+08,  7.993248549859431E+05,  3.469256642885528E+05,  3.096830060544404E-01,  2.744403793761971E+01,  1.189746323154216E+01,
2450163.116666667, A.D. 1996-Mar-20 14:48:00.0000,  1.490159770041077E+08,  8.009714971894405E+05,  3.476395120506726E+05,  3.093224364570281E-01,  2.744403551152592E+01,  1.189746217215102E+01,
2450163.117361111, A.D. 1996-Mar-20 14:49:00.0000,  1.490159955526368E+08,  8.026181392472438E+05,  3.483533597491747E+05,  3.089618671495928E-01,  2.744403308116411E+01,  1.189746111094407E+01,
2450163.118055556, A.D. 1996-Mar-20 14:50:00.0000,  1.490160140795318E+08,  8.042647811590938E+05,  3.490672073839498E+05,  3.086012981322395E-01,  2.744403064653431E+01,  1.189746004792132E+01,
2450163.118750000, A.D. 1996-Mar-20 14:51:00.0000,  1.490160325847926E+08,  8.059114229247414E+05,  3.497810549548897E+05,  3.082407294050730E-01,  2.744402820763657E+01,  1.189745898308277E+01,
2450163.119444444, A.D. 1996-Mar-20 14:52:00.0000,  1.490160510684193E+08,  8.075580645439241E+05,  3.504949024618838E+05,  3.078801609681975E-01,  2.744402576447091E+01,  1.189745791642845E+01,
2450163.120138889, A.D. 1996-Mar-20 14:53:00.0000,  1.490160695304119E+08,  8.092047060163922E+05,  3.512087499048232E+05,  3.075195928217179E-01,  2.744402331703737E+01,  1.189745684795836E+01,
2450163.120833333, A.D. 1996-Mar-20 14:54:00.0000,  1.490160879707704E+08,  8.108513473418852E+05,  3.519225972836021E+05,  3.071590249657380E-01,  2.744402086533599E+01,  1.189745577767254E+01,
2450163.121527778, A.D. 1996-Mar-20 14:55:00.0000,  1.490161063894949E+08,  8.124979885201482E+05,  3.526364445981083E+05,  3.067984574003640E-01,  2.744401840936681E+01,  1.189745470557097E+01,
2450163.122222222, A.D. 1996-Mar-20 14:56:00.0000,  1.490161247865853E+08,  8.141446295509222E+05,  3.533502918482345E+05,  3.064378901256989E-01,  2.744401594912985E+01,  1.189745363165369E+01,
2450163.122916667, A.D. 1996-Mar-20 14:57:00.0000,  1.490161431620417E+08,  8.157912704339561E+05,  3.540641390338713E+05,  3.060773231418472E-01,  2.744401348462516E+01,  1.189745255592070E+01,
2450163.123611111, A.D. 1996-Mar-20 14:58:00.0000,  1.490161615158641E+08,  8.174379111689926E+05,  3.547779861549085E+05,  3.057167564489149E-01,  2.744401101585277E+01,  1.189745147837201E+01,
2450163.124305556, A.D. 1996-Mar-20 14:59:00.0000,  1.490161798480525E+08,  8.190845517557753E+05,  3.554918332112387E+05,  3.053561900470051E-01,  2.744400854281272E+01,  1.189745039900766E+01,
2450163.125000000, A.D. 1996-Mar-20 15:00:00.0000,  1.490161981586069E+08,  8.207311921940470E+05,  3.562056802027525E+05,  3.049956239362233E-01,  2.744400606550504E+01,  1.189744931782764E+01,
2450163.125694444, A.D. 1996-Mar-20 15:01:00.0000,  1.490162164475273E+08,  8.223778324835491E+05,  3.569195271293416E+05,  3.046350581166733E-01,  2.744400358392977E+01,  1.189744823483197E+01,
2450163.126388889, A.D. 1996-Mar-20 15:02:00.0000,  1.490162347148139E+08,  8.240244726240323E+05,  3.576333739908966E+05,  3.042744925884595E-01,  2.744400109808695E+01,  1.189744715002066E+01,
2450163.127083333, A.D. 1996-Mar-20 15:03:00.0000,  1.490162529604665E+08,  8.256711126152336E+05,  3.583472207873073E+05,  3.039139273516869E-01,  2.744399860797661E+01,  1.189744606339373E+01,
2450163.127777778, A.D. 1996-Mar-20 15:04:00.0000,  1.490162711844852E+08,  8.273177524569058E+05,  3.590610675184681E+05,  3.035533624064595E-01,  2.744399611359879E+01,  1.189744497495120E+01,
2450163.128472222, A.D. 1996-Mar-20 15:05:00.0000,  1.490162893868700E+08,  8.289643921487809E+05,  3.597749141842661E+05,  3.031927977528828E-01,  2.744399361495352E+01,  1.189744388469306E+01,
2450163.129166667, A.D. 1996-Mar-20 15:06:00.0000,  1.490163075676209E+08,  8.306110316906130E+05,  3.604887607845936E+05,  3.028322333910603E-01,  2.744399111204084E+01,  1.189744279261936E+01,
2450163.129861111, A.D. 1996-Mar-20 15:07:00.0000,  1.490163257267380E+08,  8.322576710821415E+05,  3.612026073193435E+05,  3.024716693210960E-01,  2.744398860486077E+01,  1.189744169873008E+01,
2450163.130555556, A.D. 1996-Mar-20 15:08:00.0000,  1.490163438642212E+08,  8.339043103231096E+05,  3.619164537884052E+05,  3.021111055430955E-01,  2.744398609341338E+01,  1.189744060302526E+01,
2450163.131250000, A.D. 1996-Mar-20 15:09:00.0000,  1.490163619800707E+08,  8.355509494132623E+05,  3.626303001916697E+05,  3.017505420571623E-01,  2.744398357769869E+01,  1.189743950550489E+01,
2450163.131944444, A.D. 1996-Mar-20 15:10:00.0000,  1.490163800742863E+08,  8.371975883523482E+05,  3.633441465290302E+05,  3.013899788634011E-01,  2.744398105771672E+01,  1.189743840616901E+01,
2450163.132638889, A.D. 1996-Mar-20 15:11:00.0000,  1.490163981468681E+08,  8.388442271401050E+05,  3.640579928003740E+05,  3.010294159619166E-01,  2.744397853346753E+01,  1.189743730501761E+01,
